0 COSMOS 681
1 07439U 74072E   13283.14801152 -.00000026  00000-0 -66674-4 0  8534
2 07439 074.0381 039.0609 0003635 154.9014 271.8282 12.49007984781017
0 COSMOS 681
1 07439U 74072E   13285.48460684 -.00000037  00000-0 -14400-3 0  8546
2 07439 074.0387 035.9640 0003636 151.5075 338.0485 12.49008077781301
0 COSMOS 681
1 07439U 74072E   13287.48574483 -.00000013  00000-0  15922-4 0  8556
2 07439 074.0390 033.3109 0003597 148.3252 336.2025 12.49007835781552
0 COSMOS 681
1 07439U 74072E   13289.48863983  .00000002  00000-0  11855-3 0  8562
2 07439 074.0390 030.6558 0003552 145.1183 342.2770 12.49007637781801
0 COSMOS 681
1 07439U 74072E   13291.49097532  .00000013  00000-0  19159-3 0  8573
2 07439 074.0388 028.0013 0003512 141.8416 345.9049 12.49007763782050
0 COSMOS 681
1 07439U 74072E   13293.73067734 -.00000009  00000-0  44802-4 0  8584
2 07439 074.0386 025.0319 0003487 138.0444 336.9980 12.49007966782334
0 COSMOS 681
1 07439U 74072E   13295.73326619 -.00000020  00000-0 -28472-4 0  8596
2 07439 074.0386 022.3769 0003446 134.8372 341.6965 12.49008210782588
